[Satellite]
VERSION=1.1
NAME=SHIELDS 1
NICKNAME=SHIELDS 1
TLE1=1 43850U 18104B   20157.56043139  .00000482  00000-0  19586-4 0  9997
TLE2=2 43850  85.0296 183.2169 0017152 110.8747 249.4333 15.21379586 81662
STATUS=0
